BEIDOU-2 IGSO-5         
1 37948U 11073A   26183.72937883 -.00000128  00000+0  00000+0 0  9990
2 37948  47.6496 271.3544 0114527 222.0502 141.5350  1.00270596 53296
LUCH-5A                 
1 37951U 11074B   26187.63408068 -.00000039  00000+0  00000+0 0  9998
2 37951   8.7999  73.5230 0002613  51.3753 194.9372  1.00272630 53245
BEIDOU-2 G5             
1 38091U 12008A   26187.87154339  .00000070  00000+0  00000+0 0  9991
2 38091   3.6198  69.5776 0007451 273.7217 314.0398  1.00268616 52562
BEIDOU-2 M3             
1 38250U 12018A   26186.98223481 -.00000061  00000+0  00000+0 0  9996
2 38250  55.7406 304.2422 0020634 272.8880  86.8970  1.86230232 96295
BEIDOU-2 M4             
1 38251U 12018B   26186.91456580 -.00000061  00000+0  00000+0 0  9998
2 38251  55.6400 303.4564 0011775 273.7013  86.1862  1.86229862 96291
SES-5                   
1 38652U 12036A   26187.07667602  .00000048  00000+0  00000+0 0  9994
2 38652   0.0475 315.2819 0002144 151.6577 209.7104  1.00273320 44643
BEIDOU-2 M6             
1 38775U 12050B   26187.16117736 -.00000040  00000+0  00000+0 0  9997
2 38775  56.5606  62.2672 0013170   0.1642 359.9017  1.86230944 93665
GSAT-10                 
1 38779U 12051B   26187.66432233 -.00000149  00000+0  00000+0 0  9999
2 38779   0.0420 240.1474 0007864 214.3085 152.3326  1.00269440 50296
NAVSTAR 67 (USA 239)    
1 38833U 12053A   26186.76314947  .00000067  00000+0  00000+0 0  9991
2 38833  53.5886 142.8384 0181408  66.0586 295.8053  2.00567790 99810
GSAT0103 (GALILEO-FM3)  
1 38857U 12055A   26186.07331266  .00000001  00000+0  00000+0 0  9994
2 38857  55.8163 101.0549 0004125 308.6335  51.3483  1.70473389 85314
BEIDOU-2 G6             
1 38953U 12059A   26187.85518059 -.00000162  00000+0  00000+0 0  9998
2 38953   4.4682  73.3160 0009169 330.3538 273.0102  1.00269233 50101
LUCH-5B                 
1 38977U 12061A   26187.85670947 -.00000128  00000+0  00000+0 0  9994
2 38977  10.5233  49.6828 0003430 139.1816  28.1429  1.00271933 49809
COSMOS 2485 [GLONASS-M] 
1 39155U 13019A   26187.14965128 -.00000015  00000+0  00000+0 0  9992
2 39155  65.4299  72.9682 0022937 232.1452 127.7117  2.13103463102682
NAVSTAR 68 (USA 242)    
1 39166U 13023A   26187.62777016 -.00000011  00000+0  00000+0 0  9995
2 39166  54.4891 268.1812 0141405  51.1009 310.2164  2.00563377 96271
IRNSS-1A                
1 39199U 13034A   26186.73027412  .00000068  00000+0  00000+0 0  9993
2 39199  35.7606  63.6043 0017858 181.6646 356.4955  1.00280420 47558
NAVSTAR 69 (USA 248)    
1 39533U 14008A   26185.63523742  .00000067  00000+0  00000+0 0  9991
2 39533  53.6568 148.6082 0084195 231.4719 127.7443  2.00560936 90032
ASTRA 5B                
1 39617U 14011B   26187.85725924  .00000152  00000+0  00000+0 0  9995
2 39617   0.0693 307.2462 0001938 160.3101 149.3872  1.00270600 44865
COSMOS 2492 [GLONASS-M] 
1 39620U 14012A   26185.70073097 -.00000043  00000+0  00000+0 0  9999
2 39620  65.2863 313.3408 0010255 320.7541  39.1820  2.13103564 95618
IRNSS-1B                
1 39635U 14017A   26186.73010079  .00000137  00000+0  00000+0 0  9998
2 39635  28.8929 240.0829 0022969 195.5386 165.9835  1.00272765 44988
LUCH-5V                 
1 39727U 14023A   26187.73602066 -.00000256  00000+0  00000+0 0  9994
2 39727   5.1783  69.5499 0002699  63.0343 151.7961  1.00268207 44555
NAVSTAR 70 (USA 251)    
1 39741U 14026A   26186.90822377 -.00000068  00000+0  00000+0 0  9991
2 39741  56.4884 330.7891 0038111 326.0557  33.7048  2.00559646 88912
COSMOS 2500 [GLONASS-M] 
1 40001U 14032A   26187.27802748 -.00000045  00000+0  00000+0 0  9995
2 40001  65.2211 313.0331 0007945 188.5115 171.4880  2.13106116 93868
NAVSTAR 71 (USA 256)    
1 40105U 14045A   26187.00001942 -.00000013  00000+0  00000+0 0  9997
2 40105  55.3649  87.7155 0034103 118.3151 242.0701  2.00559674 86455
GSAT0201 (GALILEO 5)    
1 40128U 14050A   26186.20344625 -.00000032  00000+0  00000+0 0  9998
2 40128  48.8557 272.6971 1677026 180.0981 179.9258  1.85520009 78651
GSAT0202 (GALILEO 6)    
1 40129U 14050B   26186.99790341 -.00000031  00000+0  00000+0 0  9994
2 40129  48.8715 271.7502 1678484 180.8497 178.8849  1.85520580 80838
IRNSS-1C                
1 40269U 14061A   26187.80503634 -.00000150  00000+0  00000+0 0  9991
2 40269   6.5665  88.5574 0022129   4.5724 204.4639  1.00273671 42883
NAVSTAR 72 (USA 258)    
1 40294U 14068A   26183.37856302 -.00000059  00000+0  00000+0 0  9995
2 40294  56.9979  30.3698 0067370  71.1337 289.6561  2.00577219 85519
COSMOS 2501 [GLONASS-K] 
1 40315U 14075A   26187.54030231  .00000114  00000+0  00000+0 0  9996
2 40315  63.6180 189.7021 0022679 212.6524 147.2323  2.13101455 90266
NAVSTAR 73 (USA 260)    
1 40534U 15013A   26187.50807241  .00000096  00000+0  00000+0 0  9990
2 40534  53.1669 203.3785 0110054  40.2951 320.5570  2.00550209 82216
GSAT0203 (GALILEO 7)    
1 40544U 15017A   26186.98345984 -.00000072  00000+0  00000+0 0  9992
2 40544  56.7803 341.0841 0002460 259.0454 100.9264  1.70476214 69526
GSAT0204 (GALILEO 8)    
1 40545U 15017B   26185.47954683 -.00000073  00000+0  00000+0 0  9999
2 40545  56.7872 341.1436 0002451 236.0411 123.9323  1.70475782 32544
